start=new Date('2022-01-07T00:00:00.000Z').valueOf();
sats=[{"LAUNCH_DATE":"2021-05-15","TLE_LINE2":"2 48588  53.0538 129.0555 0001754 102.2436 257.8749 15.06400924 35631","TLE_LINE1":"1 48588U 21041AM  22006.59695920  .00001399  00000-0  11281-3 0  9994","MEAN_MOTION_DDOT":"0.0000000000000","FILE":"3265629","APOAPSIS":"548.425","MEAN_MOTION_DOT":"0.00001399","GP_ID":"193325872","OBJECT_NAME":"STARLINK-2244","PERIAPSIS":"545.996","MEAN_ANOMALY":"257.8749","EPHEMERIS_TYPE":"0","CENTER_NAME":"EARTH","SITE":"AFETR","ELEMENT_SET_NO":"999","DECAY_DATE":null,"INCLINATION":"53.0538","MEAN_ELEMENT_THEORY":"SGP4","OBJECT_ID":"2021-041AM","RCS_SIZE":"LARGE","REV_AT_EPOCH":"3563","ARG_OF_PERICENTER":"102.2436","NORAD_CAT_ID":"48588","EPOCH":"2022-01-06T14:19:37.274880","BSTAR":"0.00011281000000","RA_OF_ASC_NODE":"129.0555","SEMIMAJOR_AXIS":"6925.346","REF_FRAME":"TEME","COUNTRY_CODE":"US","MEAN_MOTION":"15.06400924","ECCENTRICITY":"0.00017540","OBJECT_TYPE":"PAYLOAD","CLASSIFICATION_TYPE":"U","TIME_SYSTEM":"UTC","PERIOD":"95.592"},{"NORAD_CAT_ID":"48589","ARG_OF_PERICENTER":"102.1860","RA_OF_ASC_NODE":"128.4703","BSTAR":"-0.00002127200000","EPOCH":"2022-01-06T17:25:24.285792","RCS_SIZE":"LARGE","REV_AT_EPOCH":"3565","CLASSIFICATION_TYPE":"U","PERIOD":"95.592","TIME_SYSTEM":"UTC","MEAN_MOTION":"15.06396200","COUNTRY_CODE":"US","SEMIMAJOR_AXIS":"6925.360","REF_FRAME":"TEME","OBJECT_TYPE":"PAYLOAD","ECCENTRICITY":"0.00019730","DECAY_DATE":null,"MEAN_ELEMENT_THEORY":"SGP4","INCLINATION":"53.0544","EPHEMERIS_TYPE":"0","ELEMENT_SET_NO":"999","SITE":"AFETR","CENTER_NAME":"EARTH","OBJECT_ID":"2021-041AN","MEAN_MOTION_DDOT":"0.0000000000000","APOAPSIS":"548.592","FILE":"3265870","OBJECT_NAME":"STARLINK-2245","PERIAPSIS":"545.859","MEAN_ANOMALY":"257.9350","GP_ID":"193355273","MEAN_MOTION_DOT":"-0.00000599","LAUNCH_DATE":"2021-05-15","TLE_LINE1":"1 48589U 21041AN  22006.72597553 -.00000599  00000-0 -21272-4 0  9998","TLE_LINE2":"2 48589  53.0544 128.4703 0001973 102.1860 257.9350 15.06396200 35652"},{"RA_OF_ASC_NODE":"138.6544","BSTAR":"0.00009105300000","EPOCH":"2022-01-06T16:25:41.428128","NORAD_CAT_ID":"48590","ARG_OF_PERICENTER":"94.1323","REV_AT_EPOCH":"3550","RCS_SIZE":"LARGE","PERIOD":"95.592","TIME_SYSTEM":"UTC","CLASSIFICATION_TYPE":"U","OBJECT_TYPE":"PAYLOAD","ECCENTRICITY":"0.00018420","MEAN_MOTION":"15.06397745","COUNTRY_CODE":"US","SEMIMAJOR_AXIS":"6925.355","REF_FRAME":"TEME","MEAN_ELEMENT_THEORY":"SGP4","INCLINATION":"53.0552","DECAY_DATE":null,"SITE":"AFETR","ELEMENT_SET_NO":"999","CENTER_NAME":"EARTH","EPHEMERIS_TYPE":"0","OBJECT_ID":"2021-041AP","FILE":"3265870","APOAPSIS":"548.496","MEAN_MOTION_DDOT":"0.0000000000000","PERIAPSIS":"545.945","MEAN_ANOMALY":"265.9876","OBJECT_NAME":"STARLINK-2246","GP_ID":"193355523","MEAN_MOTION_DOT":"0.00001075","LAUNCH_DATE":"2021-05-15","TLE_LINE1":"1 48590U 21041AP  22006.68450727  .00001075  00000-0  91053-4 0  9998","TLE_LINE2":"2 48590  53.0552 138.6544 0001842  94.1323 265.9876 15.06397745 35509"},{"OBJECT_NAME":"STARLINK-2248","MEAN_ANOMALY":"264.5469","PERIAPSIS":"546.013","MEAN_MOTION_DOT":"0.00001357","GP_ID":"193356775","MEAN_MOTION_DDOT":"0.0000000000000","APOAPSIS":"548.428","FILE":"3265870","TLE_LINE1":"1 48591U 21041AQ  22006.71028320  .00001357  00000-0  10997-3 0  9993","TLE_LINE2":"2 48591  53.0596 128.4697 0001744  95.5719 264.5469 15.06397789 36556","LAUNCH_DATE":"2021-05-15","CLASSIFICATION_TYPE":"U","TIME_SYSTEM":"UTC","PERIOD":"95.592","REF_FRAME":"TEME","SEMIMAJOR_AXIS":"6925.355","MEAN_MOTION":"15.06397789","COUNTRY_CODE":"US","ECCENTRICITY":"0.00017440","OBJECT_TYPE":"PAYLOAD","ARG_OF_PERICENTER":"95.5719","NORAD_CAT_ID":"48591","EPOCH":"2022-01-06T17:02:48.468480","RA_OF_ASC_NODE":"128.4697","BSTAR":"0.00010997000000","RCS_SIZE":"LARGE","REV_AT_EPOCH":"3655","OBJECT_ID":"2021-041AQ","DECAY_DATE":null,"INCLINATION":"53.0596","MEAN_ELEMENT_THEORY":"SGP4","EPHEMERIS_TYPE":"0","SITE":"AFETR","CENTER_NAME":"EARTH","ELEMENT_SET_NO":"999"},{"OBJECT_ID":"2021-041AR","INCLINATION":"53.0559","MEAN_ELEMENT_THEORY":"SGP4","DECAY_DATE":null,"CENTER_NAME":"EARTH","SITE":"AFETR","ELEMENT_SET_NO":"999","EPHEMERIS_TYPE":"0","TIME_SYSTEM":"UTC","PERIOD":"95.593","CLASSIFICATION_TYPE":"U","ECCENTRICITY":"0.00019290","OBJECT_TYPE":"PAYLOAD","SEMIMAJOR_AXIS":"6925.395","REF_FRAME":"TEME","MEAN_MOTION":"15.06385008","COUNTRY_CODE":"US","EPOCH":"2022-01-06T20:24:32.833728","BSTAR":"-0.00003902700000","RA_OF_ASC_NODE":"137.9213","ARG_OF_PERICENTER":"98.9570","NORAD_CAT_ID":"48592","REV_AT_EPOCH":"3553","RCS_SIZE":"LARGE","TLE_LINE1":"1 48592U 21041AR  22006.85038002 -.00000863  00000-0 -39027-4 0  9996","TLE_LINE2":"2 48592  53.0559 137.9213 0001929  98.9570 261.1638 15.06385008 35531","LAUNCH_DATE":"2021-05-15","MEAN_ANOMALY":"261.1638","PERIAPSIS":"545.924","OBJECT_NAME":"STARLINK-2249","MEAN_MOTION_DOT":"-0.00000863","GP_ID":"193356525","FILE":"3265870","APOAPSIS":"548.595","MEAN_MOTION_DDOT":"0.0000000000000"},{"EPHEMERIS_TYPE":"0","CENTER_NAME":"EARTH","SITE":"AFETR","ELEMENT_SET_NO":"999","DECAY_DATE":null,"INCLINATION":"53.0555","MEAN_ELEMENT_THEORY":"SGP4","OBJECT_ID":"2021-041AS","RCS_SIZE":"LARGE","REV_AT_EPOCH":"3551","ARG_OF_PERICENTER":"95.9974","NORAD_CAT_ID":"48593","EPOCH":"2022-01-06T17:24:04.909248","RA_OF_ASC_NODE":"138.4730","BSTAR":"0.00001596300000","SEMIMAJOR_AXIS":"6925.380","REF_FRAME":"TEME","MEAN_MOTION":"15.06389849","COUNTRY_CODE":"US","ECCENTRICITY":"0.00017370","OBJECT_TYPE":"PAYLOAD","CLASSIFICATION_TYPE":"U","TIME_SYSTEM":"UTC","PERIOD":"95.593","LAUNCH_DATE":"2021-05-15","TLE_LINE2":"2 48593  53.0555 138.4730 0001737  95.9974 264.1213 15.06389849 35517","TLE_LINE1":"1 48593U 21041AS  22006.72505682 -.00000044  00000-0  15963-4 0  9999","MEAN_MOTION_DDOT":"0.0000000000000","APOAPSIS":"548.448","FILE":"3265870","MEAN_MOTION_DOT":"-0.00000044","GP_ID":"193355774","OBJECT_NAME":"STARLINK-2250","MEAN_ANOMALY":"264.1213","PERIAPSIS":"546.042"},{"LAUNCH_DATE":"2021-05-15","TLE_LINE2":"2 48594  53.0541 107.1909 0001561 107.6552 315.0054 15.05584084  3591","TLE_LINE1":"1 48594U 21041AT  22006.91667824 -.00033480  00000-0 -22893-2 0  9997","FILE":"3265870","APOAPSIS":"550.797","MEAN_MOTION_DDOT":"0.0000000000000","GP_ID":"193356024","MEAN_MOTION_DOT":"-0.00033480","MEAN_ANOMALY":"315.0054","PERIAPSIS":"548.634","OBJECT_NAME":"STARLINK-2251","CENTER_NAME":"EARTH","SITE":"AFETR","ELEMENT_SET_NO":"999","EPHEMERIS_TYPE":"0","MEAN_ELEMENT_THEORY":"SGP4","INCLINATION":"53.0541","DECAY_DATE":null,"OBJECT_ID":"2021-041AT","REV_AT_EPOCH":"359","RCS_SIZE":"LARGE","BSTAR":"-0.00228930000000","RA_OF_ASC_NODE":"107.1909","EPOCH":"2022-01-06T22:00:00.999936","NORAD_CAT_ID":"48594","ARG_OF_PERICENTER":"107.6552","OBJECT_TYPE":"PAYLOAD","ECCENTRICITY":"0.00015610","MEAN_MOTION":"15.05584084","COUNTRY_CODE":"US","SEMIMAJOR_AXIS":"6927.850","REF_FRAME":"TEME","PERIOD":"95.644","TIME_SYSTEM":"UTC","CLASSIFICATION_TYPE":"U"},{"MEAN_MOTION":"15.06396953","COUNTRY_CODE":"US","REF_FRAME":"TEME","SEMIMAJOR_AXIS":"6925.358","OBJECT_TYPE":"PAYLOAD","ECCENTRICITY":"0.00016900","CLASSIFICATION_TYPE":"U","PERIOD":"95.592","TIME_SYSTEM":"UTC","RCS_SIZE":"LARGE","REV_AT_EPOCH":"3680","NORAD_CAT_ID":"48595","ARG_OF_PERICENTER":"98.6443","RA_OF_ASC_NODE":"137.9637","BSTAR":"0.00009026300000","EPOCH":"2022-01-06T20:08:36.555072","OBJECT_ID":"2021-041AU","EPHEMERIS_TYPE":"0","SITE":"AFETR","ELEMENT_SET_NO":"999","CENTER_NAME":"EARTH","DECAY_DATE":null,"MEAN_ELEMENT_THEORY":"SGP4","INCLINATION":"53.0555","GP_ID":"193356275","MEAN_MOTION_DOT":"0.00001063","OBJECT_NAME":"STARLINK-2252","MEAN_ANOMALY":"261.4738","PERIAPSIS":"546.053","MEAN_MOTION_DDOT":"0.0000000000000","FILE":"3265870","APOAPSIS":"548.393","TLE_LINE2":"2 48595  53.0555 137.9637 0001690  98.6443 261.4738 15.06396953 36807","TLE_LINE1":"1 48595U 21041AU  22006.83931198  .00001063  00000-0  90263-4 0  9995","LAUNCH_DATE":"2021-05-15"},{"GP_ID":"193357026","MEAN_MOTION_DOT":"-0.00000461","OBJECT_NAME":"STARLINK-2253","PERIAPSIS":"545.860","MEAN_ANOMALY":"269.3199","MEAN_MOTION_DDOT":"0.0000000000000","APOAPSIS":"548.629","FILE":"3265870","TLE_LINE2":"2 48596  53.0552 137.8616 0001999  90.8019 269.3199 15.06389919 35997","TLE_LINE1":"1 48596U 21041AV  22006.86144074 -.00000461  00000-0 -12063-4 0  9993","LAUNCH_DATE":"2021-05-15","COUNTRY_CODE":"US","MEAN_MOTION":"15.06389919","REF_FRAME":"TEME","SEMIMAJOR_AXIS":"6925.379","OBJECT_TYPE":"PAYLOAD","ECCENTRICITY":"0.00019990","CLASSIFICATION_TYPE":"U","PERIOD":"95.593","TIME_SYSTEM":"UTC","RCS_SIZE":"LARGE","REV_AT_EPOCH":"3599","NORAD_CAT_ID":"48596","ARG_OF_PERICENTER":"90.8019","BSTAR":"-0.00001206300000","RA_OF_ASC_NODE":"137.8616","EPOCH":"2022-01-06T20:40:28.479936","OBJECT_ID":"2021-041AV","EPHEMERIS_TYPE":"0","SITE":"AFETR","CENTER_NAME":"EARTH","ELEMENT_SET_NO":"999","DECAY_DATE":null,"MEAN_ELEMENT_THEORY":"SGP4","INCLINATION":"53.0552"},{"APOAPSIS":"548.561","FILE":"3265870","MEAN_MOTION_DDOT":"0.0000000000000","GP_ID":"193355274","MEAN_MOTION_DOT":"-0.00000429","MEAN_ANOMALY":"257.9015","PERIAPSIS":"545.931","OBJECT_NAME":"STARLINK-2255","LAUNCH_DATE":"2021-05-15","TLE_LINE2":"2 48597  53.0560 138.7324 0001899 102.2187 257.9015 15.06389407 36775","TLE_LINE1":"1 48597U 21041AW  22006.66977010 -.00000429  00000-0 -99125-5 0  9995","REV_AT_EPOCH":"3677","RCS_SIZE":"LARGE","BSTAR":"-0.00000991250000","RA_OF_ASC_NODE":"138.7324","EPOCH":"2022-01-06T16:04:28.136640","NORAD_CAT_ID":"48597","ARG_OF_PERICENTER":"102.2187","OBJECT_TYPE":"PAYLOAD","ECCENTRICITY":"0.00018990","MEAN_MOTION":"15.06389407","COUNTRY_CODE":"US","SEMIMAJOR_AXIS":"6925.381","REF_FRAME":"TEME","PERIOD":"95.593","TIME_SYSTEM":"UTC","CLASSIFICATION_TYPE":"U","SITE":"AFETR","ELEMENT_SET_NO":"999","CENTER_NAME":"EARTH","EPHEMERIS_TYPE":"0","MEAN_ELEMENT_THEORY":"SGP4","INCLINATION":"53.0560","DECAY_DATE":null,"OBJECT_ID":"2021-041AW"}];
